COSMOS 1933             
1 18958U 88020A   26003.91290859  .00007118  00000+0  35512-3 0  9998
2 18958  82.5155 314.9678 0006133  71.8915 288.2986 15.17349484 40408
SL-3 R/B                
1 19046U 88032B   26004.12924528  .00007704  00000+0  36726-3 0  9990
2 19046  97.5098 347.7002 0028463  98.4801 261.9661 15.19021296 42302
SL-16 R/B               
1 19120U 88039B   26004.01348059  .00000251  00000+0  14151-3 0  9995
2 19120  71.0135 205.3034 0019558  77.9795 282.3521 14.19602160949208
COSMOS 1953             
1 19210U 88050A   25363.34859606  .00008063  00000+0  30114-3 0  9992
2 19210  82.5080 228.9139 0012535  18.6006 341.5688 15.27141359 27045
SL-8 R/B                
1 19257U 88053B   26004.07657890  .00000442  00000+0  15165-3 0  9992
2 19257  74.0462 231.5531 0019039  67.2851  43.3879 14.38875761967309
COSMOS 1975             
1 19573U 88093A   26004.00077709  .00010164  00000+0  38322-3 0  9997
2 19573  82.5186 182.5371 0012544  42.2830 317.9373 15.26851483  9532
SL-14 R/B               
1 19574U 88093B   26004.02386365  .00000938  00000+0  10537-3 0  9997
2 19574  82.5318 102.7562 0019330 250.7875 283.5541 14.85580052991430
SL-16 R/B               
1 19650U 88102B   26004.06183526 -.00000162  00000+0 -57575-4 0  9996
2 19650  71.0003 287.4763 0011916 113.2322 247.0057 14.16142057917747
INTERCOSMOS 24          
1 20261U 89080A   26003.67034662  .00000813  00000+0  23038-3 0  9991
2 20261  82.6069 146.6966 1188896  83.6671 289.8179 12.59476233658616
SL-14 R/B               
1 20262U 89080C   26004.06563362  .00000476  00000+0  14224-3 0  9992
2 20262  82.5913 214.6861 1230139 332.5650  21.5317 12.50432593652076
DELTA 1 R/B             
1 20323U 89089B   26004.05794048  .00000686  00000+0  17875-3 0  9993
2 20323  97.0739 221.7575 0068345 327.9801  31.7253 14.50595634886366
ARIANE 40 R/B           
1 20443U 90005H   26004.18579953  .00000544  00000+0  18669-3 0  9991
2 20443  98.3209  66.7259 0010751  43.8902 316.3138 14.39818785883526
